[{"OBJECT_NAME":"STARLINK-35951","OBJECT_ID":"2025-271C","EPOCH":"2026-03-09T11:45:57.790080","MEAN_MOTION":15.30177372,"ECCENTRICITY":0.00011682,"INCLINATION":53.1573,"RA_OF_ASC_NODE":141.0365,"ARG_OF_PERICENTER":103.5033,"MEAN_ANOMALY":256.6098,"EPHEMERIS_TYPE":0,"CLASSIFICATION_TYPE":"U","NORAD_CAT_ID":66619,"ELEMENT_SET_NO":999,"REV_AT_EPOCH":1753,"BSTAR":0.00062166057,"MEAN_MOTION_DOT":0.00018085,"MEAN_MOTION_DDOT":0},{"OBJECT_NAME":"CERISE","OBJECT_ID":"1995-033B","EPOCH":"2026-03-09T23:11:27.589056","MEAN_MOTION":15.32047731,"ECCENTRICITY":0.00057118,"INCLINATION":98.325,"RA_OF_ASC_NODE":273.5192,"ARG_OF_PERICENTER":211.8754,"MEAN_ANOMALY":148.214,"EPHEMERIS_TYPE":0,"CLASSIFICATION_TYPE":"U","NORAD_CAT_ID":23606,"ELEMENT_SET_NO":999,"REV_AT_EPOCH":66468,"BSTAR":0.00062940675,"MEAN_MOTION_DOT":0.00019422,"MEAN_MOTION_DDOT":0}]
